     2.100          NAVIGATION                              RINEX VERSION / TYPE
fic2rin                                 09/21/2011 00:09:31 PGM / RUN BY / DATE
                                                            END OF HEADER
17 11  9 20 10  0  0.0  .174372456968D-03 -.170530256582D-11  .000000000000D+00
     .400000000000D+01 -.237500000000D+02  .450590197462D-08 -.122809644959D+01
    -.129640102386D-05  .658540229779D-02  .829622149467D-05  .515357816887D+04
     .208800000000D+06  .214204192162D-06  .226875945489D+01 -.931322574615D-08
     .961706364393D+00  .223031250000D+03 -.240417606441D+01 -.795318842508D-08
     .996470078407D-10  .100000000000D+01  .165400000000D+04  .000000000000D+00
     .240000000000D+01  .000000000000D+00 -.107102096081D-07  .400000000000D+01
     .201606000000D+06  .400000000000D+01
18 11  9 20 10  0  0.0  .158216804266D-03  .181898940355D-11  .000000000000D+00
     .240000000000D+02  .457812500000D+02  .519200198201D-08  .234961777227D+00
     .236369669437D-05  .127682510065D-01  .862777233124D-05  .515363187218D+04
     .208800000000D+06 -.106170773506D-06 -.193820807513D+01  .195577740669D-06
     .931738620665D+00  .201500000000D+03 -.221568536044D+01 -.845856661897D-08
    -.175007289756D-09  .100000000000D+01  .165400000000D+04  .000000000000D+00
     .240000000000D+01  .000000000000D+00 -.107102096081D-07  .240000000000D+02
     .201606000000D+06  .400000000000D+01
19 11  9 20 10  0  0.0 -.185766257346D-03 -.397903932026D-11  .000000000000D+00
     .420000000000D+02 -.303437500000D+02  .451125934063D-08 -.193974019070D+01
    -.154599547386D-05  .761537288781D-02  .828504562378D-05  .515369968414D+04
     .208800000000D+06 -.130385160446D-07  .232247409973D+01 -.763684511185D-07
     .959209862507D+00  .220187500000D+03  .102717043286D+00 -.792175854447D-08
     .275368613065D-09  .100000000000D+01  .165400000000D+04  .000000000000D+00
     .240000000000D+01  .000000000000D+00 -.144354999065D-07  .420000000000D+02
     .201606000000D+06  .400000000000D+01
20 11  9 20 10  0  0.0  .532064586878D-04  .568434188608D-12  .000000000000D+00
     .110000000000D+02  .336250000000D+02  .511842748876D-08  .654345353665D+00
     .157579779625D-05  .455477624200D-02  .860355794430D-05  .515359292984D+04
     .208800000000D+06 -.875443220139D-07 -.199209782833D+01 -.298023223877D-07
     .932026117715D+00  .196531250000D+03  .126884251584D+01 -.838142054838D-08
    -.200722646618D-09  .100000000000D+01  .165400000000D+04  .000000000000D+00
     .240000000000D+01  .000000000000D+00 -.745058059692D-08  .110000000000D+02
     .201606000000D+06  .400000000000D+01
21 11  9 20 10  0  0.0 -.172663945705D-03 -.250111042988D-11  .000000000000D+00
     .900000000000D+02 -.331250000000D+01  .531593571577D-08  .134366145973D+01
    -.987201929092D-07  .181194398319D-01  .794604420662D-05  .515370907402D+04
     .208800000000D+06 -.299885869026D-06 -.299125325855D+01  .102445483208D-06
     .931971471873D+00  .216468750000D+03 -.232973745873D+01 -.851571185644D-08
    -.253224833545D-09  .100000000000D+01  .165400000000D+04  .000000000000D+00
     .240000000000D+01  .000000000000D+00 -.116415321827D-07  .900000000000D+02
     .201606000000D+06  .400000000000D+01
22 11  9 20 10  0  0.0  .144452322274D-03  .000000000000D+00  .000000000000D+00
     .830000000000D+02  .500000000000D+02  .518414451186D-08 -.611182475072D+00
     .266358256340D-05  .591974903364D-02  .869669020176D-05  .515370531273D+04
     .208800000000D+06 -.260770320892D-07 -.193430937797D+01  .689178705215D-07
     .929441366758D+00  .197468750000D+03 -.197355822070D+01 -.838499212572D-08
    -.126433837905D-09  .100000000000D+01  .165400000000D+04  .000000000000D+00
     .340000000000D+01  .000000000000D+00 -.167638063431D-07  .830000000000D+02
     .201606000000D+06  .400000000000D+01
24 11  9 20 10  0  0.0  .425409525633D-03  .318323145621D-11  .000000000000D+00
     .105000000000D+03  .559375000000D+01  .480591447134D-08 -.303787572628D+01
     .391155481339D-06  .667522416916D-02  .759214162827D-05  .515341560173D+04
     .208800000000D+06 -.614672899246D-07 -.294462003691D+01  .316649675369D-07
     .948537497686D+00  .226625000000D+03 -.188277703093D+00 -.806355016495D-08
    -.121433629627D-10  .100000000000D+01  .165400000000D+04  .000000000000D+00
     .240000000000D+01  .000000000000D+00 -.139698386192D-08  .105000000000D+03
     .201606000000D+06  .400000000000D+01
25 11  9 20 10  0  0.0  .195824541152D-04  .181898940355D-11  .000000000000D+00
     .800000000000D+01 -.697812500000D+02  .439661170795D-08  .493439250137D+00
    -.355578958988D-05  .103957590181D-02  .796839594841D-05  .515360031319D+04
     .208800000000D+06  .298023223877D-07  .117723829421D+01  .186264514923D-07
     .965230617432D+00  .225125000000D+03  .993385527706D+00 -.805926427213D-08
    -.278583032673D-10  .100000000000D+01  .165400000000D+04  .000000000000D+00
     .240000000000D+01  .000000000000D+00  .558793544769D-08  .800000000000D+01
     .201606000000D+06  .400000000000D+01
26 11  9 20 10  0  0.0 -.163287390023D-03 -.127329258248D-10  .000000000000D+00
     .660000000000D+02  .636250000000D+02  .400873840862D-08 -.261187497492D+01
     .307708978653D-05  .203650591429D-01  .553205609322D-05  .515365798950D+04
     .208800000000D+06  .318512320518D-06 -.824785516679D+00 -.596046447754D-07
     .986041535582D+00  .283375000000D+03  .116120972402D+01 -.759174479807D-08
     .184293390845D-09  .100000000000D+01  .165400000000D+04  .000000000000D+00
     .240000000000D+01  .000000000000D+00 -.605359673500D-08  .660000000000D+02
     .201606000000D+06  .400000000000D+01
27 11  9 20 10  0  0.0  .307101756334D-03  .386535248253D-11  .000000000000D+00
     .930000000000D+02 -.107187500000D+02  .424767693279D-08 -.165369722891D+01
    -.949949026108D-07  .216410098365D-01  .507943332195D-05  .515362365723D+04
     .208800000000D+06 -.352039933205D-06  .995507663004D-01  .404193997383D-06
     .981753393535D+00  .295593750000D+03 -.120312201100D+01 -.805319259065D-08
    -.189293599124D-10  .100000000000D+01  .165400000000D+04  .000000000000D+00
     .485000000000D+01  .630000000000D+02 -.419095158577D-08  .930000000000D+02
     .201606000000D+06  .400000000000D+01
28 11  9 20 10  0  0.0  .689802691340D-04  .306954461848D-11  .000000000000D+00
     .530000000000D+02 -.510937500000D+02  .427874965567D-08 -.557431345059D+00
    -.265240669250D-05  .171916543040D-01  .730529427528D-05  .515370730019D+04
     .208800000000D+06 -.171363353729D-06  .123345811311D+01  .149011611938D-06
     .975660183203D+00  .248281250000D+03 -.188019657072D+01 -.827177312398D-08
    -.321441960776D-10  .100000000000D+01  .165400000000D+04  .000000000000D+00
     .240000000000D+01  .000000000000D+00 -.102445483208D-07  .530000000000D+02
     .201606000000D+06  .400000000000D+01
30 11  9 20 10  0  0.0  .829547643661D-04 -.568434188608D-11  .000000000000D+00
     .102000000000D+03 -.698125000000D+02  .468698094586D-08 -.438708680377D+00
    -.354647636414D-05  .117433865089D-01  .756420195103D-05  .515543889427D+04
     .208800000000D+06 -.113621354103D-06  .108852561794D+01  .409781932831D-07
     .956547432063D+00  .229593750000D+03  .157659736898D+01 -.838963517627D-08
    -.750031241812D-11  .100000000000D+01  .165400000000D+04  .000000000000D+00
     .240000000000D+01  .000000000000D+00 -.419095158577D-08  .102000000000D+03
     .201606000000D+06  .400000000000D+01
31 11  9 20 10  0  0.0  .144009012729D-03  .545696821064D-11  .000000000000D+00
     .890000000000D+02 -.231562500000D+02  .430732227440D-08  .224504052917D+01
    -.101327896118D-05  .767064082902D-02  .396929681301D-05  .515373862648D+04
     .208800000000D+06  .126659870148D-06  .155106496465D+00 -.186264514923D-08
     .980474577845D+00  .310406250000D+03 -.953472935632D+00 -.805569269479D-08
    -.153577825704D-09  .100000000000D+01  .165400000000D+04  .000000000000D+00
     .340000000000D+01  .000000000000D+00 -.130385160446D-07  .890000000000D+02
     .201606000000D+06  .400000000000D+01
32 11  9 20 10  0  0.0 -.331898219883D-03 -.648014975013D-11  .000000000000D+00
     .530000000000D+02  .486875000000D+02  .450304471274D-08  .297282497021D+01
     .248849391937D-05  .121833677404D-01  .884011387825D-05  .515357403183D+04
     .208800000000D+06 -.260770320892D-07 -.186483141193D+01  .197440385818D-06
     .953625244422D+00  .199062500000D+03 -.731453599041D+00 -.786389899153D-08
    -.163578242262D-09  .100000000000D+01  .165400000000D+04  .000000000000D+00
     .240000000000D+01  .000000000000D+00 -.279396772385D-08  .530000000000D+02
     .201606000000D+06  .400000000000D+01
 1 11  9 20  9 59 44.0 -.327220186591D-05 -.159161572810D-11  .000000000000D+00
     .360000000000D+02  .400000000000D+01  .459554856590D-08  .124293199546D+01
     .268220901489D-06  .299480860122D-03  .750832259655D-05  .515366351891D+04
     .208784000000D+06  .558793544769D-08 -.300774749751D+01  .931322574615D-08
     .960660676402D+00  .234687500000D+03  .172944874358D+01 -.804997817105D-08
     .357157734196D-11  .100000000000D+01  .165400000000D+04  .000000000000D+00
     .240000000000D+01  .630000000000D+02  .791624188423D-08  .360000000000D+02
     .207426000000D+06  .400000000000D+01
16 11  9 20  9 59 44.0 -.198792200536D-03 -.216004991671D-11  .000000000000D+00
     .000000000000D+00 -.761250000000D+02  .406124059554D-08 -.378783796151D+00
    -.399909913540D-05  .626134686172D-02  .755488872528D-05  .515389009666D+04
     .208784000000D+06  .115483999252D-06  .122639945438D+01 -.298023223877D-07
     .977351228727D+00  .244281250000D+03 -.543775208134D-01 -.792818738368D-08
    -.378587198248D-10  .100000000000D+01  .165400000000D+04  .000000000000D+00
     .240000000000D+01  .630000000000D+02 -.977888703346D-08  .000000000000D+00
     .208206000000D+06  .400000000000D+01
